NORAD_CAT_ID,OBJECT_NAME,OBJECT_TYPE,EPOCH,MEAN_MOTION,ECCENTRICITY,INCLINATION,RA_OF_ASC_NODE,ARG_OF_PERICENTER,MEAN_ANOMALY,BSTAR,MEAN_MOTION_DOT,MEAN_MOTION_DDOT,TLE_LINE0,TLE_LINE1,TLE_LINE2,SEMIMAJOR_AXIS,PERIOD,APOGEE,PERIGEE,DECAYED
52498.0,STARLINK-3925,PAYLOAD,2022-08-24 22:00:00,15.2626468,0.0001501999999999,53.2175,83.1149,56.9211,54.5822,-0.044374,-0.01067625,0.0,0 STARLINK-3925,1 52498U 22049AZ  22236.91667824 -.01067625  00000-0 -44374-1 0  9995,2 52498  53.2175  83.1149 0001502  56.9211  54.5822 15.26264680 17511,6865.127,94.348,488.024,485.961,0.0
52498.0,STARLINK-3925,PAYLOAD,2022-08-25 14:00:01,15.24743971,0.0001467,53.2176,80.0379,68.7194,106.0093,-0.046292,-0.0106397,0.0,0 STARLINK-3925,1 52498U 22049AZ  22237.58334491 -.01063970  00000-0 -46292-1 0  9990,2 52498  53.2176  80.0379 0001467  68.7194 106.0093 15.24743971  1300,6869.691,94.442,492.564,490.549,0.0
52498.0,STARLINK-3925,PAYLOAD,2022-08-25 22:00:00,15.23983919,0.0001545,53.2175,78.5048,61.8706,143.1003,-0.0473279999999999,-0.01063279,0.0,0 STARLINK-3925,1 52498U 22049AZ  22237.91667824 -.01063279  00000-0 -47328-1 0  9999,2 52498  53.2175  78.5048 0001545  61.8706 143.1003 15.23983919 17660,6871.975,94.489,494.902,492.779,0.0
52498.0,STARLINK-3925,PAYLOAD,2022-08-26 14:00:01,15.22465146,0.0001413,53.2175,75.4385,67.2341,195.5489,-0.049512,-0.01063006,0.0,0 STARLINK-3925,1 52498U 22049AZ  22238.58335648 -.01063006  00000-0 -49512-1 0  9994,2 52498  53.2175  75.4385 0001413  67.2341 195.5489 15.22465146  1308,6876.545,94.583,499.381,497.43800000000016,0.0
52498.0,STARLINK-3925,PAYLOAD,2022-08-26 20:00:01,15.21894745,0.0001525,53.2173,74.2927,64.9459,128.4878,-0.050339,-0.01062667,0.0,0 STARLINK-3925,1 52498U 22049AZ  22238.83334491 -.01062667  00000-0 -50339-1 0  9998,2 52498  53.2173  74.2927 0001525  64.9459 128.4878 15.21894745 17802,6878.263000000001,94.619,501.177,499.079,0.0
52498.0,STARLINK-3925,PAYLOAD,2022-08-26 22:00:00,15.217053,0.0001375999999999,53.2176,73.9108,66.9848,223.239,-0.050625,-0.01062691,0.0,0 STARLINK-3925,1 52498U 22049AZ  22238.91667824 -.01062691  00000-0 -50625-1 0  9991,2 52498  53.2176  73.9108 0001376  66.9848 223.2390 15.21705300  1309,6878.834,94.631,501.645,499.752,0.0
52498.0,STARLINK-3925,PAYLOAD,2022-08-27 14:00:01,15.20186413,0.0001288,53.2176,70.8552,65.3448,277.1519,-0.052934,-0.01062509,0.0,0 STARLINK-3925,1 52498U 22049AZ  22239.58334491 -.01062509  00000-0 -52934-1 0  9999,2 52498  53.2176  70.8552 0001288  65.3448 277.1519 15.20186413  1307,6883.415,94.725,506.166,504.393,0.0
52498.0,STARLINK-3925,PAYLOAD,2022-08-27 22:00:00,15.194271300000002,0.000133,53.2175,69.3328,60.1758,307.0869,-0.0541769999999999,-0.01063468,0.0,0 STARLINK-3925,1 52498U 22049AZ  22239.91667824 -.01063468  00000-0 -54177-1 0  9991,2 52498  53.2175  69.3328 0001330  60.1758 307.0869 15.19427130  1308,6885.708000000001,94.773,508.489,506.657,0.0
52498.0,STARLINK-3925,PAYLOAD,2022-08-28 14:00:01,15.17907629,0.0001361999999999,53.2175,66.288,60.03,354.0299,-0.05656,-0.01075814,0.0,0 STARLINK-3925,1 52498U 22049AZ  22240.58334491 -.01075814  00000-0 -56560-1 0  9993,2 52498  53.2175  66.2880 0001362  60.0300 354.0299 15.17907629  1307,6890.302,94.867,513.106,511.229,0.0
52498.0,STARLINK-3925,PAYLOAD,2022-08-28 22:00:00,15.17147326,0.0001468,53.2175,64.7707,54.9791,21.1093,-0.057772,-0.0107508,0.0,0 STARLINK-3925,1 52498U 22049AZ  22240.91667824 -.01075080  00000-0 -57772-1 0  9990,2 52498  53.2175  64.7707 0001468  54.9791  21.1093 15.17147326  1305,6892.604,94.915,515.481,513.457,0.0
52498.0,STARLINK-3925,PAYLOAD,2022-08-29 14:00:01,15.15628522,0.0001593,53.2174,61.7364,53.0193,64.39,-0.060344,-0.01075079,0.0,0 STARLINK-3925,1 52498U 22049AZ  22241.58334491 -.01075079  00000-0 -60344-1 0  9992,2 52498  53.2174  61.7364 0001593  53.0193  64.3900 15.15628522  1301,6897.208000000001,95.01,520.172,517.974,0.0
52498.0,STARLINK-3925,PAYLOAD,2022-08-29 16:00:00,15.15451459,0.0001498,53.2166,61.3597,72.0915,140.2181,-0.061685,-0.01092064,0.0,0 STARLINK-3925,1 52498U 22049AZ  22241.66667824 -.01092064  00000-0 -61685-1 0  9992,2 52498  53.2166  61.3597 0001498  72.0915 140.2181 15.15451459 18231,6897.745,95.021,520.644,518.577,0.0
52498.0,STARLINK-3925,PAYLOAD,2022-08-29 22:00:00,15.1486679,0.0001471,53.2174,60.2244,64.9035,71.7967,-0.06145,-0.01071519,0.0,0 STARLINK-3925,1 52498U 22049AZ  22241.91667824 -.01071519  00000-0 -61450-1 0  9992,2 52498  53.2174  60.2244 0001471  64.9035  71.7967 15.14866790  1308,6899.52,95.058,522.4,520.37,0.0
52498.0,STARLINK-3925,PAYLOAD,2022-08-30 14:00:01,15.13349422,0.0001618,53.2175,57.2009,57.5697,114.9748,-0.064309,-0.01074017,0.0,0 STARLINK-3925,1 52498U 22049AZ  22242.58334491 -.01074017  00000-0 -64309-1 0  9999,2 52498  53.2175  57.2009 0001618  57.5697 114.9748 15.13349422  1303,6904.130999999999,95.153,527.113,524.879,0.0
52498.0,STARLINK-3925,PAYLOAD,2022-08-30 22:00:00,15.12586849,0.0001554,53.2174,55.6941,61.9154,127.1823,-0.065352,-0.01068658,0.0,0 STARLINK-3925,1 52498U 22049AZ  22242.91667824 -.01068658  00000-0 -65352-1 0  9998,2 52498  53.2174  55.6941 0001554  61.9154 127.1823 15.12586849  1300,6906.451,95.201,529.39,527.243,0.0
52498.0,STARLINK-3925,PAYLOAD,2022-08-31 14:00:01,15.11070441,0.0001634,53.2175,52.6814,56.2293,163.2362,-0.068482,-0.01072993,0.0,0 STARLINK-3925,1 52498U 22049AZ  22243.58334491 -.01072993  00000-0 -68482-1 0  9997,2 52498  53.2175  52.6814 0001634  56.2293 163.2362 15.11070441 18523,6911.071,95.297,534.065,531.807,0.0
52498.0,STARLINK-3925,PAYLOAD,2022-08-31 22:00:00,15.10309897,0.0001547,53.2173,51.1799,64.0557,169.2244,-0.069863,-0.010718,0.0,0 STARLINK-3925,1 52498U 22049AZ  22243.91667824 -.01071800  00000-0 -69863-1 0  9993,2 52498  53.2173  51.1799 0001547  64.0557 169.2244 15.10309897  1302,6913.391,95.345,536.326,534.187,0.0
52498.0,STARLINK-3925,PAYLOAD,2022-09-01 14:00:01,15.08849791,0.0001659,53.2175,48.1804,58.0666,200.2391,-0.0013925,-0.00022387,0.0,0 STARLINK-3925,1 52498U 22049AZ  22244.58335648 -.00022387  00000-0 -13925-2 0  9997,2 52498  53.2175  48.1804 0001659  58.0666 200.2391 15.08849791 18682,6917.85,95.437,540.863,538.568,0.0
52498.0,STARLINK-3925,PAYLOAD,2022-09-01 22:00:00,15.08846665,0.0001575,53.216,46.6883,56.9996,212.8318,-0.00077127,-0.00012544,0.0,0 STARLINK-3925,1 52498U 22049AZ  22244.91667824 -.00012544  00000-0 -77127-3 0  9997,2 52498  53.2160  46.6883 0001575  56.9996 212.8318 15.08846665  1302,6917.86,95.437,540.815,538.635,0.0
52498.0,STARLINK-3925,PAYLOAD,2022-09-02 06:00:00,15.08841659,0.0001493,53.2145,45.1955,58.8303,222.6263,-0.0013250999999999,-0.00021316,0.0,0 STARLINK-3925,1 52498U 22049AZ  22245.25001157 -.00021316  00000-0 -13251-2 0  9990,2 52498  53.2145  45.1955 0001493  58.8303 222.6263 15.08841659 18787,6917.875,95.437,540.773,538.707,0.0
52498.0,STARLINK-3925,PAYLOAD,2022-09-02 14:00:01,15.08835978,0.0001493,53.2146,43.6998,57.82,235.2221,-0.0019175,-0.00030672,0.0,0 STARLINK-3925,1 52498U 22049AZ  22245.58334491 -.00030672  00000-0 -19175-2 0  9992,2 52498  53.2146  43.6998 0001493  57.8200 235.2221 15.08835978  1304,6917.893,95.438,540.7909999999998,538.725,0.0
52498.0,STARLINK-3925,PAYLOAD,2022-09-02 22:00:01,15.08802155,0.0001583,53.2144,42.2044,50.832,253.8506,0.0025685,0.00040784,0.0,0 STARLINK-3925,1 52498U 22049AZ  22245.91668981  .00040784  00000-0  25685-2 0  9999,2 52498  53.2144  42.2044 0001583  50.8320 253.8506 15.08802155  1308,6917.996,95.44,540.956,538.766,0.0
52498.0,STARLINK-3925,PAYLOAD,2022-09-03 08:00:01,15.08802653,0.0001399,53.2145,40.332,60.2118,348.8769,0.0031835,0.0005069,0.0,0 STARLINK-3925,1 52498U 22049AZ  22246.33334491  .00050690  00000-0  31835-2 0  9993,2 52498  53.2145  40.3320 0001399  60.2118 348.8769 15.08802653 18947,6917.995,95.44,540.827,538.8919999999998,0.0
52498.0,STARLINK-3925,PAYLOAD,2022-09-03 14:00:01,15.08846264,0.0001476,53.2147,39.2108,57.6831,270.0779,-0.0015145,-0.00024314,0.0,0 STARLINK-3925,1 52498U 22049AZ  22246.58334491 -.00024314  00000-0 -15145-2 0  9992,2 52498  53.2147  39.2108 0001476  57.6831 270.0779 15.08846264  1303,6917.861,95.437,540.747,538.705,0.0
52498.0,STARLINK-3925,PAYLOAD,2022-09-03 22:00:00,15.08826203,0.000155,53.2142,37.7152,50.7943,288.5649,0.0022035,0.00034942,0.0,0 STARLINK-3925,1 52498U 22049AZ  22246.91667824  .00034942  00000-0  22035-2 0  9990,2 52498  53.2142  37.7152 0001550  50.7943 288.5649 15.08826203 19031,6917.9230000000025,95.438,540.86,538.715,0.0
52498.0,STARLINK-3925,PAYLOAD,2022-09-04 14:00:01,15.08875152,0.0001488,53.2142,34.7216,57.8483,304.7764,-0.0017905999999999,-0.000287,0.0,0 STARLINK-3925,1 52498U 22049AZ  22247.58335648 -.00028700  00000-0 -17906-2 0  9998,2 52498  53.2142  34.7216 0001488  57.8483 304.7764 15.08875152  1303,6917.773,95.435,540.6669999999998,538.609,0.0
52498.0,STARLINK-3925,PAYLOAD,2022-09-04 20:00:01,15.088586,0.0001629999999999,53.214,33.6001,53.2211,228.0737,0.00024679,3.644e-05,0.0,0 STARLINK-3925,1 52498U 22049AZ  22247.83334491  .00003644  00000-0  24679-3 0  9995,2 52498  53.2140  33.6001 0001630  53.2211 228.0737 15.08858600  1306,6917.824000000001,95.436,540.816,538.561,0.0
52498.0,STARLINK-3925,PAYLOAD,2022-09-05 14:00:01,15.08862345,0.0001652,53.2137,30.2322,60.5835,336.8483,-0.0031826,-0.00050615,0.0,0 STARLINK-3925,1 52498U 22049AZ  22248.58334491 -.00050615  00000-0 -31826-2 0  9991,2 52498  53.2137  30.2322 0001652  60.5835 336.8483 15.08862345  1305,6917.812,95.436,540.82,538.534,0.0
52498.0,STARLINK-3925,PAYLOAD,2022-09-05 20:00:01,15.08828677,0.0001663,53.2135,29.1106,54.7625,261.3799,-0.00099485,-0.00016081,0.0,0 STARLINK-3925,1 52498U 22049AZ  22248.83334491 -.00016081  00000-0 -99485-3 0  9994,2 52498  53.2135  29.1106 0001663  54.7625 261.3799 15.08828677 19327,6917.915,95.438,540.93,538.63,0.0
